NORAD_CAT_ID,OBJECT_NAME,OBJECT_TYPE,EPOCH,MEAN_MOTION,ECCENTRICITY,INCLINATION,RA_OF_ASC_NODE,ARG_OF_PERICENTER,MEAN_ANOMALY,BSTAR,MEAN_MOTION_DOT,MEAN_MOTION_DDOT,TLE_LINE0,TLE_LINE1,TLE_LINE2,SEMIMAJOR_AXIS,PERIOD,APOGEE,PERIGEE,DECAYED
52335.0,STARLINK-3814,PAYLOAD,2023-01-23 04:35:24,15.08848798,0.0001217999999999,53.2131,293.5186,74.617,285.4956,0.0016848,0.00026634,0.0,0 STARLINK-3814,1 52335U 22045E   23023.19125546  .00026634  00000-0  16848-2 0  9994,2 52335  53.2131 293.5186 0001218  74.6170 285.4956 15.08848798 43314,6917.853,95.437,540.561,538.876,0.0
52335.0,STARLINK-3814,PAYLOAD,2023-01-23 10:56:57,15.08839818,0.0001017,53.2123,292.3259,82.5655,277.5452,0.00044245,6.761e-05,0.0,0 STARLINK-3814,1 52335U 22045E   23023.45621658  .00006761  00000-0  44245-3 0  9990,2 52335  53.2123 292.3259 0001017  82.5655 277.5452 15.08839818 43356,6917.880999999999,95.438,540.4490000000001,539.0419999999999,0.0
52335.0,STARLINK-3814,PAYLOAD,2023-01-24 02:50:48,15.08858179,0.0001716,53.2138,289.35200000000003,75.6663,284.4519,0.00071227,0.00011072,0.0,0 STARLINK-3814,1 52335U 22045E   23024.11861392  .00011072  00000-0  71227-3 0  9996,2 52335  53.2138 289.3520 0001716  75.6663 284.4519 15.08858179 43450,6917.825,95.436,540.877,538.503,0.0
52335.0,STARLINK-3814,PAYLOAD,2023-01-25 02:41:35,15.08848252,0.000137,53.2132,284.8902,91.6665,268.4484,0.0004479,6.849e-05,0.0,0 STARLINK-3814,1 52335U 22045E   23025.11221400  .00006849  00000-0  44790-3 0  9998,2 52335  53.2132 284.8902 0001370  91.6665 268.4484 15.08848252 43605,6917.855,95.437,540.668,538.7719999999999,0.0
52335.0,STARLINK-3814,PAYLOAD,2023-01-25 10:38:31,15.08847367,0.0001163,53.213,283.4075,72.6338,287.4781,0.00030241,4.529e-05,0.0,0 STARLINK-3814,1 52335U 22045E   23025.44341474  .00004529  00000-0  30241-3 0  9997,2 52335  53.2130 283.4075 0001163  72.6338 287.4781 15.08847367 43657,6917.858,95.437,540.5269999999999,538.918,0.0
52335.0,STARLINK-3814,PAYLOAD,2023-01-26 02:32:22,15.08844987,0.0001481,53.2132,280.4306,93.3281,266.788,0.00060241,9.314e-05,0.0,0 STARLINK-3814,1 52335U 22045E   23026.10581572  .00009314  00000-0  60241-3 0  9996,2 52335  53.2132 280.4306 0001481  93.3281 266.7880 15.08844987 43759,6917.865,95.437,540.755,538.706,0.0
52335.0,STARLINK-3814,PAYLOAD,2023-01-26 23:12:23,15.08846722,0.0001424,53.213,276.5666,74.7844,285.3305,0.00021662,3.162e-05,0.0,0 STARLINK-3814,1 52335U 22045E   23026.96693614  .00003162  00000-0  21662-3 0  9990,2 52335  53.2130 276.5666 0001424  74.7844 285.3305 15.08846722 43889,6917.86,95.437,540.71,538.74,0.0
52335.0,STARLINK-3814,PAYLOAD,2023-01-27 02:23:09,15.08847761,0.0001401,53.2129,275.9706,76.7789,283.3359,0.00034087,5.142e-05,0.0,0 STARLINK-3814,1 52335U 22045E   23027.09941595  .00005142  00000-0  34087-3 0  9994,2 52335  53.2129 275.9706 0001401  76.7789 283.3359 15.08847761 43904,6917.857,95.437,540.691,538.752,0.0
52335.0,STARLINK-3814,PAYLOAD,2023-01-27 21:27:47,15.08835997,0.0001578,53.213,272.4005,81.3267,278.7904,3.9214e-05,3.36e-06,0.0,0 STARLINK-3814,1 52335U 22045E   23027.89430207  .00000336  00000-0  39214-4 0  9993,2 52335  53.2130 272.4005 0001578  81.3267 278.7904 15.08835997 44024,6917.893,95.438,540.849,538.6659999999999,0.0
52335.0,STARLINK-3814,PAYLOAD,2023-01-28 02:13:56,15.0884201,0.0001394,53.213,271.5101,81.2552,278.8598,0.00015754,2.22e-05,0.0,0 STARLINK-3814,1 52335U 22045E   23028.09301971  .00002220  00000-0  15754-3 0  9997,2 52335  53.2130 271.5101 0001394  81.2552 278.8598 15.08842010 44050,6917.874,95.437,540.7040000000001,538.775,0.0
52335.0,STARLINK-3814,PAYLOAD,2023-01-28 19:43:11,15.08840055,0.0001439,53.2132,268.2388,77.6699,282.4454,6.8737e-05,8.06e-06,0.0,0 STARLINK-3814,1 52335U 22045E   23028.82166170  .00000806  00000-0  68737-4 0  9996,2 52335  53.2132 268.2388 0001439  77.6699 282.4454 15.08840055 44164,6917.88,95.438,540.741,538.75,0.0
52335.0,STARLINK-3814,PAYLOAD,2023-01-29 19:33:58,15.08835631,0.0001347,53.2128,263.7788,80.354,279.7604,4.3901e-06,-2.18e-06,0.0,0 STARLINK-3814,1 52335U 22045E   23029.81526468 -.00000218  00000-0  43901-5 0  9991,2 52335  53.2128 263.7788 0001347  80.3540 279.7604 15.08835631 44314,6917.894,95.438,540.691,538.827,0.0
52335.0,STARLINK-3814,PAYLOAD,2023-01-29 22:44:45,15.08838623,0.0001313,53.2124,263.1835,78.0428,282.0711,1.7509e-05,-9e-08,0.0,0 STARLINK-3814,1 52335U 22045E   23029.94774323 -.00000009  00000-0  17509-4 0  9992,2 52335  53.2124 263.1835 0001313  78.0428 282.0711 15.08838623 44331,6917.885,95.438,540.658,538.841,0.0
52335.0,STARLINK-3814,PAYLOAD,2023-01-30 14:38:36,15.08831192,0.000136,53.2131,260.2107,82.8267,277.288,0.00024681,3.641e-05,0.0,0 STARLINK-3814,1 52335U 22045E   23030.61014970  .00003641  00000-0  24681-3 0  9995,2 52335  53.2131 260.2107 0001360  82.8267 277.2880 15.08831192 44433,6917.907,95.438,540.713,538.831,0.0
52335.0,STARLINK-3814,PAYLOAD,2023-01-30 22:35:32,15.08840878,0.0001359,53.213,258.7239,83.3435,276.7712,6.3395e-05,7.21e-06,0.0,0 STARLINK-3814,1 52335U 22045E   23030.94134380  .00000721  00000-0  63395-4 0  9991,2 52335  53.2130 258.7239 0001359  83.3435 276.7712 15.08840878 44485,6917.878,95.437,540.683,538.803,0.0
52335.0,STARLINK-3814,PAYLOAD,2023-01-31 14:29:23,15.08840499,0.0001304,53.2129,255.7497,79.9675,280.1464,0.00015505,2.181e-05,0.0,0 STARLINK-3814,1 52335U 22045E   23031.60374508  .00002181  00000-0  15505-3 0  9994,2 52335  53.2129 255.7497 0001304  79.9675 280.1464 15.08840499 44586,6917.879,95.438,540.646,538.842,0.0
52335.0,STARLINK-3814,PAYLOAD,2023-01-31 20:50:55,15.08845414,0.00013,53.2127,254.5603,80.5488,279.5651,0.0001675,2.379e-05,0.0,0 STARLINK-3814,1 52335U 22045E   23031.86870150  .00002379  00000-0  16750-3 0  9998,2 52335  53.2127 254.5603 0001300  80.5488 279.5651 15.08845414 44623,6917.864,95.437,540.628,538.83,0.0
52335.0,STARLINK-3814,PAYLOAD,2023-02-01 00:01:42,15.08847015,0.0001368,53.2121,253.9657,79.6194,280.4952,0.00018751,2.698e-05,0.0,0 STARLINK-3814,1 52335U 22045E   23032.00118077  .00002698  00000-0  18751-3 0  9995,2 52335  53.2121 253.9657 0001368  79.6194 280.4952 15.08847015 44642,6917.859,95.437,540.67,538.778,0.0
52335.0,STARLINK-3814,PAYLOAD,2023-02-01 14:20:11,15.08829826,0.0001319,53.2115,251.2895,84.4715,275.6427,-6.4116e-05,-1.308e-05,0.0,0 STARLINK-3814,1 52335U 22045E   23032.59735201 -.00001308  00000-0 -64116-4 0  9999,2 52335  53.2115 251.2895 0001319  84.4715 275.6427 15.08829826 44732,6917.911,95.438,540.689,538.864,0.0
52335.0,STARLINK-3814,PAYLOAD,2023-02-02 12:35:35,15.08829182,0.0001273,53.2123,247.1254,84.1524,275.9613,2.1011e-05,4.6e-07,0.0,0 STARLINK-3814,1 52335U 22045E   23033.52472113  .00000046  00000-0  21011-4 0  9996,2 52335  53.2123 247.1254 0001273  84.1524 275.9613 15.08829182 44878,6917.913,95.438,540.659,538.898,0.0
52335.0,STARLINK-3814,PAYLOAD,2023-02-02 22:07:54,15.08835721,0.0001323,53.2117,245.3409,89.409,270.7054,0.00023804,3.502e-05,0.0,0 STARLINK-3814,1 52335U 22045E   23033.92216139  .00003502  00000-0  23804-3 0  9995,2 52335  53.2117 245.3409 0001323  89.4090 270.7054 15.08835721 44930,6917.893,95.438,540.674,538.843,0.0
52335.0,STARLINK-3814,PAYLOAD,2023-02-03 12:26:22,15.08843148,0.0001337,53.2117,242.6643,88.201,271.9135,0.00043487,6.64e-05,0.0,0 STARLINK-3814,1 52335U 22045E   23034.51832171  .00006640  00000-0  43487-3 0  9996,2 52335  53.2117 242.6643 0001337  88.2010 271.9135 15.08843148 45020,6917.871,95.437,540.661,538.811,0.0
52335.0,STARLINK-3814,PAYLOAD,2023-02-03 18:47:55,15.08856472,0.0001375,53.2116,241.4752,85.4843,274.6306,0.00067243,0.00010435,0.0,0 STARLINK-3814,1 52335U 22045E   23034.78327892  .00010435  00000-0  67243-3 0  9997,2 52335  53.2116 241.4752 0001375  85.4843 274.6306 15.08856472 45060,6917.83,95.437,540.646,538.744,0.0
52335.0,STARLINK-3814,PAYLOAD,2023-02-04 12:17:09,15.08857345,0.0001451,53.2115,238.2033,86.552,273.5638,0.00023491,3.454e-05,0.0,0 STARLINK-3814,1 52335U 22045E   23035.51191108  .00003454  00000-0  23491-3 0  9998,2 52335  53.2115 238.2033 0001451  86.5520 273.5638 15.08857345 45172,6917.827,95.436,540.696,538.689,0.0
52335.0,STARLINK-3814,PAYLOAD,2023-02-04 20:14:04,15.08859016,0.0001441,53.2116,236.7164,87.9939,272.1218,0.0002727,4.057e-05,0.0,0 STARLINK-3814,1 52335U 22045E   23035.84310681  .00004057  00000-0  27270-3 0  9992,2 52335  53.2116 236.7164 0001441  87.9939 272.1218 15.08859016 45221,6917.822,95.436,540.684,538.69,0.0
52335.0,STARLINK-3814,PAYLOAD,2023-02-05 05:46:23,15.08848293,0.0001443,53.2115,234.9317,87.3961,272.7197,-1.2152e-05,-4.81e-06,0.0,0 STARLINK-3814,1 52335U 22045E   23036.24054684 -.00000481  00000-0 -12152-4 0  9998,2 52335  53.2115 234.9317 0001443  87.3961 272.7197 15.08848293 45284,6917.855,95.437,540.718,538.722,0.0
52335.0,STARLINK-3814,PAYLOAD,2023-02-05 13:43:19,15.08844399,0.0001437,53.2115,233.445,86.3791,273.7366,-8.766e-05,-1.683e-05,0.0,0 STARLINK-3814,1 52335U 22045E   23036.57174788 -.00001683  00000-0 -87660-4 0  9993,2 52335  53.2115 233.4450 0001437  86.3791 273.7366 15.08844399 45337,6917.867,95.437,540.726,538.738,0.0
52335.0,STARLINK-3814,PAYLOAD,2023-02-05 20:04:51,15.08844164,0.0001387,53.2131,232.2557,92.9075,267.2076,-2.4379e-05,-6.76e-06,0.0,0 STARLINK-3814,1 52335U 22045E   23036.83671122 -.00000676  00000-0 -24379-4 0  9995,2 52335  53.2131 232.2557 0001387  92.9075 267.2076 15.08844164 45372,6917.868,95.437,540.692,538.773,0.0
52335.0,STARLINK-3814,PAYLOAD,2023-02-06 13:34:06,15.08844296,0.0001347,53.2134,228.9849,92.6896,267.4251,-1.4713e-06,-3.11e-06,0.0,0 STARLINK-3814,1 52335U 22045E   23037.56534935 -.00000311  00000-0 -14713-5 0  9994,2 52335  53.2134 228.9849 0001347  92.6896 267.4251 15.08844296 45480,6917.867,95.437,540.664,538.8,0.0
52335.0,STARLINK-3814,PAYLOAD,2023-02-06 19:55:38,15.08847903,0.0001342,53.2135,227.7956,93.7095,266.405,3.1671e-05,2.16e-06,0.0,0 STARLINK-3814,1 52335U 22045E   23037.83030532  .00000216  00000-0  31671-4 0  9991,2 52335  53.2135 227.7956 0001342  93.7095 266.4050 15.08847903 45524,6917.856,95.437,540.65,538.793,0.0
